STARLINK-36169          
1 66929U 25286E   25356.83335647 -.01941644  00000+0 -16901-1 0  9993
2 66929  53.1592 359.8840 0001179  84.8751  46.6945 15.71333565  3610
STARLINK-36206          
1 66930U 25286F   25356.83335647 -.01933078  00000+0 -16823-1 0  9990
2 66930  53.1593 359.8804 0001017  82.0943  51.3945 15.71327175  3610
STARLINK-36130          
1 66931U 25286G   25356.83335647 -.01929013  00000+0 -16785-1 0  9992
2 66931  53.1592 359.8762 0001049  88.3703  47.0371 15.71324303  3616
STARLINK-36177          
1 66932U 25286H   25356.83335647 -.01942709  00000+0 -16911-1 0  9991
2 66932  53.1594 359.8723 0001253  83.5808  53.7386 15.71334249  3616
STARLINK-36157          
1 66933U 25286J   25356.83335647 -.01932455  00000+0 -16817-1 0  9994
2 66933  53.1594 359.8682 0001024  81.9503  57.2892 15.71326777  3619
STARLINK-36153          
1 66934U 25286K   25356.83335647 -.01931208  00000+0 -16805-1 0  9997
2 66934  53.1594 359.8639 0001084  89.9891  51.1681 15.71325512  3611
STARLINK-36127          
1 66935U 25286L   25356.83335647 -.01942852  00000+0 -16914-1 0  9996
2 66935  53.1593 359.8598 0001183  81.0060  62.0662 15.71333210  3610
STARLINK-36160          
1 66936U 25286M   25356.83335647 -.01953102  00000+0 -17009-1 0  9993
2 66936  53.1591 359.8565 0001078  84.4083  60.5762 15.71342086  3613
STARLINK-36165          
1 66937U 25286N   25356.83335647 -.01944871  00000+0 -16931-1 0  9990
2 66937  53.1592 359.8521 0001128  80.7809  66.1210 15.71336611  3615
STARLINK-36155          
1 66938U 25286P   25356.83335647 -.01941370  00000+0 -16900-1 0  9998
2 66938  53.1591 359.8474 0001004  85.0592  63.7603 15.71334241  3618
STARLINK-36154          
1 66939U 25286Q   25356.83335647 -.01949652  00000+0 -16976-1 0  9993
2 66939  53.1589 359.8396 0001077  84.2878  68.3630 15.71340554  3612
STARLINK-36121          
1 66940U 25286R   25356.83335647 -.01946663  00000+0 -16948-1 0  9993
2 66940  53.1590 359.8352 0001140  92.7068  61.8631 15.71337650  3616
