CCSDS_OMM_VERS = 2.0
CREATION_DATE  = 
ORIGINATOR     = 

OBJECT_NAME    = STARLINK-36169
OBJECT_ID      = 2025-286E
CENTER_NAME    = EARTH
REF_FRAME      = TEME
TIME_SYSTEM    = UTC
MEAN_ELEMENT_THEORY = SGP/SGP4

EPOCH          = 2025-12-22T20:00:01.999008
MEAN_MOTION    = 15.71333565
ECCENTRICITY   = .0001179
INCLINATION    = 53.1592
RA_OF_ASC_NODE = 359.8840
ARG_OF_PERICENTER = 84.8751
MEAN_ANOMALY   = 46.6945

EPHEMERIS_TYPE = 0
CLASSIFICATION_TYPE = U
NORAD_CAT_ID   = 66929
ELEMENT_SET_NO = 999
REV_AT_EPOCH   = 361
BSTAR          = -.16901E-1
MEAN_MOTION_DOT = -.1941644E-1
MEAN_MOTION_DDOT = 0

CCSDS_OMM_VERS = 2.0
CREATION_DATE  = 
ORIGINATOR     = 

OBJECT_NAME    = STARLINK-36206
OBJECT_ID      = 2025-286F
CENTER_NAME    = EARTH
REF_FRAME      = TEME
TIME_SYSTEM    = UTC
MEAN_ELEMENT_THEORY = SGP/SGP4

EPOCH          = 2025-12-22T20:00:01.999008
MEAN_MOTION    = 15.71327175
ECCENTRICITY   = .0001017
INCLINATION    = 53.1593
RA_OF_ASC_NODE = 359.8804
ARG_OF_PERICENTER = 82.0943
MEAN_ANOMALY   = 51.3945

EPHEMERIS_TYPE = 0
CLASSIFICATION_TYPE = U
NORAD_CAT_ID   = 66930
ELEMENT_SET_NO = 999
REV_AT_EPOCH   = 361
BSTAR          = -.16823E-1
MEAN_MOTION_DOT = -.1933078E-1
MEAN_MOTION_DDOT = 0

CCSDS_OMM_VERS = 2.0
CREATION_DATE  = 
ORIGINATOR     = 

OBJECT_NAME    = STARLINK-36130
OBJECT_ID      = 2025-286G
CENTER_NAME    = EARTH
REF_FRAME      = TEME
TIME_SYSTEM    = UTC
MEAN_ELEMENT_THEORY = SGP/SGP4

EPOCH          = 2025-12-22T20:00:01.999008
MEAN_MOTION    = 15.71324303
ECCENTRICITY   = .0001049
INCLINATION    = 53.1592
RA_OF_ASC_NODE = 359.8762
ARG_OF_PERICENTER = 88.3703
MEAN_ANOMALY   = 47.0371

EPHEMERIS_TYPE = 0
CLASSIFICATION_TYPE = U
NORAD_CAT_ID   = 66931
ELEMENT_SET_NO = 999
REV_AT_EPOCH   = 361
BSTAR          = -.16785E-1
MEAN_MOTION_DOT = -.1929013E-1
MEAN_MOTION_DDOT = 0

CCSDS_OMM_VERS = 2.0
CREATION_DATE  = 
ORIGINATOR     = 

OBJECT_NAME    = STARLINK-36177
OBJECT_ID      = 2025-286H
CENTER_NAME    = EARTH
REF_FRAME      = TEME
TIME_SYSTEM    = UTC
MEAN_ELEMENT_THEORY = SGP/SGP4

EPOCH          = 2025-12-22T20:00:01.999008
MEAN_MOTION    = 15.71334249
ECCENTRICITY   = .0001253
INCLINATION    = 53.1594
RA_OF_ASC_NODE = 359.8723
ARG_OF_PERICENTER = 83.5808
MEAN_ANOMALY   = 53.7386

EPHEMERIS_TYPE = 0
CLASSIFICATION_TYPE = U
NORAD_CAT_ID   = 66932
ELEMENT_SET_NO = 999
REV_AT_EPOCH   = 361
BSTAR          = -.16911E-1
MEAN_MOTION_DOT = -.1942709E-1
MEAN_MOTION_DDOT = 0

CCSDS_OMM_VERS = 2.0
CREATION_DATE  = 
ORIGINATOR     = 

OBJECT_NAME    = STARLINK-36157
OBJECT_ID      = 2025-286J
CENTER_NAME    = EARTH
REF_FRAME      = TEME
TIME_SYSTEM    = UTC
MEAN_ELEMENT_THEORY = SGP/SGP4

EPOCH          = 2025-12-22T20:00:01.999008
MEAN_MOTION    = 15.71326777
ECCENTRICITY   = .0001024
INCLINATION    = 53.1594
RA_OF_ASC_NODE = 359.8682
ARG_OF_PERICENTER = 81.9503
MEAN_ANOMALY   = 57.2892

EPHEMERIS_TYPE = 0
CLASSIFICATION_TYPE = U
NORAD_CAT_ID   = 66933
ELEMENT_SET_NO = 999
REV_AT_EPOCH   = 361
BSTAR          = -.16817E-1
MEAN_MOTION_DOT = -.1932455E-1
MEAN_MOTION_DDOT = 0

CCSDS_OMM_VERS = 2.0
CREATION_DATE  = 
ORIGINATOR     = 

OBJECT_NAME    = STARLINK-36153
OBJECT_ID      = 2025-286K
CENTER_NAME    = EARTH
REF_FRAME      = TEME
TIME_SYSTEM    = UTC
MEAN_ELEMENT_THEORY = SGP/SGP4

EPOCH          = 2025-12-22T20:00:01.999008
MEAN_MOTION    = 15.71325512
ECCENTRICITY   = .0001084
INCLINATION    = 53.1594
RA_OF_ASC_NODE = 359.8639
ARG_OF_PERICENTER = 89.9891
MEAN_ANOMALY   = 51.1681

EPHEMERIS_TYPE = 0
CLASSIFICATION_TYPE = U
NORAD_CAT_ID   = 66934
ELEMENT_SET_NO = 999
REV_AT_EPOCH   = 361
BSTAR          = -.16805E-1
MEAN_MOTION_DOT = -.1931208E-1
MEAN_MOTION_DDOT = 0

CCSDS_OMM_VERS = 2.0
CREATION_DATE  = 
ORIGINATOR     = 

OBJECT_NAME    = STARLINK-36127
OBJECT_ID      = 2025-286L
CENTER_NAME    = EARTH
REF_FRAME      = TEME
TIME_SYSTEM    = UTC
MEAN_ELEMENT_THEORY = SGP/SGP4

EPOCH          = 2025-12-22T20:00:01.999008
MEAN_MOTION    = 15.71333210
ECCENTRICITY   = .0001183
INCLINATION    = 53.1593
RA_OF_ASC_NODE = 359.8598
ARG_OF_PERICENTER = 81.0060
MEAN_ANOMALY   = 62.0662

EPHEMERIS_TYPE = 0
CLASSIFICATION_TYPE = U
NORAD_CAT_ID   = 66935
ELEMENT_SET_NO = 999
REV_AT_EPOCH   = 361
BSTAR          = -.16914E-1
MEAN_MOTION_DOT = -.1942852E-1
MEAN_MOTION_DDOT = 0

CCSDS_OMM_VERS = 2.0
CREATION_DATE  = 
ORIGINATOR     = 

OBJECT_NAME    = STARLINK-36160
OBJECT_ID      = 2025-286M
CENTER_NAME    = EARTH
REF_FRAME      = TEME
TIME_SYSTEM    = UTC
MEAN_ELEMENT_THEORY = SGP/SGP4

EPOCH          = 2025-12-22T20:00:01.999008
MEAN_MOTION    = 15.71342086
ECCENTRICITY   = .0001078
INCLINATION    = 53.1591
RA_OF_ASC_NODE = 359.8565
ARG_OF_PERICENTER = 84.4083
MEAN_ANOMALY   = 60.5762

EPHEMERIS_TYPE = 0
CLASSIFICATION_TYPE = U
NORAD_CAT_ID   = 66936
ELEMENT_SET_NO = 999
REV_AT_EPOCH   = 361
BSTAR          = -.17009E-1
MEAN_MOTION_DOT = -.1953102E-1
MEAN_MOTION_DDOT = 0

CCSDS_OMM_VERS = 2.0
CREATION_DATE  = 
ORIGINATOR     = 

OBJECT_NAME    = STARLINK-36165
OBJECT_ID      = 2025-286N
CENTER_NAME    = EARTH
REF_FRAME      = TEME
TIME_SYSTEM    = UTC
MEAN_ELEMENT_THEORY = SGP/SGP4

EPOCH          = 2025-12-22T20:00:01.999008
MEAN_MOTION    = 15.71336611
ECCENTRICITY   = .0001128
INCLINATION    = 53.1592
RA_OF_ASC_NODE = 359.8521
ARG_OF_PERICENTER = 80.7809
MEAN_ANOMALY   = 66.1210

EPHEMERIS_TYPE = 0
CLASSIFICATION_TYPE = U
NORAD_CAT_ID   = 66937
ELEMENT_SET_NO = 999
REV_AT_EPOCH   = 361
BSTAR          = -.16931E-1
MEAN_MOTION_DOT = -.1944871E-1
MEAN_MOTION_DDOT = 0

CCSDS_OMM_VERS = 2.0
CREATION_DATE  = 
ORIGINATOR     = 

OBJECT_NAME    = STARLINK-36155
OBJECT_ID      = 2025-286P
CENTER_NAME    = EARTH
REF_FRAME      = TEME
TIME_SYSTEM    = UTC
MEAN_ELEMENT_THEORY = SGP/SGP4

EPOCH          = 2025-12-22T20:00:01.999008
MEAN_MOTION    = 15.71334241
ECCENTRICITY   = .0001004
INCLINATION    = 53.1591
RA_OF_ASC_NODE = 359.8474
ARG_OF_PERICENTER = 85.0592
MEAN_ANOMALY   = 63.7603

EPHEMERIS_TYPE = 0
CLASSIFICATION_TYPE = U
NORAD_CAT_ID   = 66938
ELEMENT_SET_NO = 999
REV_AT_EPOCH   = 361
BSTAR          = -.169E-1
MEAN_MOTION_DOT = -.194137E-1
MEAN_MOTION_DDOT = 0

CCSDS_OMM_VERS = 2.0
CREATION_DATE  = 
ORIGINATOR     = 

OBJECT_NAME    = STARLINK-36154
OBJECT_ID      = 2025-286Q
CENTER_NAME    = EARTH
REF_FRAME      = TEME
TIME_SYSTEM    = UTC
MEAN_ELEMENT_THEORY = SGP/SGP4

EPOCH          = 2025-12-22T20:00:01.999008
MEAN_MOTION    = 15.71340554
ECCENTRICITY   = .0001077
INCLINATION    = 53.1589
RA_OF_ASC_NODE = 359.8396
ARG_OF_PERICENTER = 84.2878
MEAN_ANOMALY   = 68.3630

EPHEMERIS_TYPE = 0
CLASSIFICATION_TYPE = U
NORAD_CAT_ID   = 66939
ELEMENT_SET_NO = 999
REV_AT_EPOCH   = 361
BSTAR          = -.16976E-1
MEAN_MOTION_DOT = -.1949652E-1
MEAN_MOTION_DDOT = 0

CCSDS_OMM_VERS = 2.0
CREATION_DATE  = 
ORIGINATOR     = 

OBJECT_NAME    = STARLINK-36121
OBJECT_ID      = 2025-286R
CENTER_NAME    = EARTH
REF_FRAME      = TEME
TIME_SYSTEM    = UTC
MEAN_ELEMENT_THEORY = SGP/SGP4

EPOCH          = 2025-12-22T20:00:01.999008
MEAN_MOTION    = 15.71337650
ECCENTRICITY   = .000114
INCLINATION    = 53.1590
RA_OF_ASC_NODE = 359.8352
ARG_OF_PERICENTER = 92.7068
MEAN_ANOMALY   = 61.8631

EPHEMERIS_TYPE = 0
CLASSIFICATION_TYPE = U
NORAD_CAT_ID   = 66940
ELEMENT_SET_NO = 999
REV_AT_EPOCH   = 361
BSTAR          = -.16948E-1
MEAN_MOTION_DOT = -.1946663E-1
MEAN_MOTION_DDOT = 0

